{
    "links": {
        "self": "http://www.neowsapp.com/rest/v1/neo/3831066?api_key=iIulBulltgU6a56xZRHN4H3l9WmuAYTsLGpBGhQ2"
    },
    "id": "3831066",
    "neo_reference_id": "3831066",
    "name": "(2018 SM3)",
    "designation": "2018 SM3",
    "nasa_jpl_url": "http://ssd.jpl.nasa.gov/sbdb.cgi?sstr=3831066",
    "absolute_magnitude_h": 25.3,
    "estimated_diameter": {
        "kilometers": {
            "estimated_diameter_min": 0.0231502122,
            "estimated_diameter_max": 0.0517654482
        },
        "meters": {
            "estimated_diameter_min": 23.150212221,
            "estimated_diameter_max": 51.7654482198
        },
        "miles": {
            "estimated_diameter_min": 0.0143848705,
            "estimated_diameter_max": 0.0321655483
        },
        "feet": {
            "estimated_diameter_min": 75.9521422633,
            "estimated_diameter_max": 169.8341531374
        }
    },
    "is_potentially_hazardous_asteroid": false,
    "close_approach_data": [
        {
            "close_approach_date": "2018-10-02",
            "close_approach_date_full": "2018-Oct-02 00:53",
            "epoch_date_close_approach": 1538441580000,
            "relative_velocity": {
                "kilometers_per_second": "8.315412805",
                "kilometers_per_hour": "29935.4860980231",
                "miles_per_hour": "18600.7469035189"
            },
            "miss_distance": {
                "astronomical": "0.0474278461",
                "lunar": "18.4494321329",
                "kilometers": "7095104.755247807",
                "miles": "4408693.6610694566"
            },
            "orbiting_body": "Earth"
        }
    ],
    "orbital_data": {
        "orbit_id": "5",
        "orbit_determination_date": "2018-10-21 07:09:17",
        "first_observation_date": "2018-09-30",
        "last_observation_date": "2018-10-17",
        "data_arc_in_days": 17,
        "observations_used": 31,
        "orbit_uncertainty": "8",
        "minimum_orbit_intersection": ".0442357",
        "jupiter_tisserand_invariant": "3.388",
        "epoch_osculation": "2458394.5",
        "eccentricity": ".542335404761437",
        "semi_major_axis": "2.272030103882704",
        "inclination": "8.618882721132467",
        "ascending_node_longitude": "188.3889347121289",
        "orbital_period": "1250.891233597401",
        "perihelion_distance": "1.039827737863308",
        "perihelion_argument": "191.4124565147801",
        "aphelion_distance": "3.5042324699021",
        "perihelion_time": "2458402.589289963622",
        "mean_anomaly": "357.6719443635967",
        "mean_motion": ".2877948060797315",
        "equinox": "J2000",
        "orbit_class": {
            "orbit_class_type": "AMO",
            "orbit_class_description": "Near-Earth asteroid orbits similar to that of 1221 Amor",
            "orbit_class_range": "1.017 AU < q (perihelion) < 1.3 AU"
        }
    },
    "is_sentry_object": false
}